STARLINK-3343           
1 50822U 22001V   25309.54308192 -.00000223  00000+0  40890-5 0  9996
2 50822  53.2192   6.4346 0001390  81.5051 278.6098 15.08833233211669
STARLINK-3334           
1 50823U 22001W   25309.57619455 -.00000585  00000+0 -18679-4 0  9998
2 50823  53.2182   6.2868 0001240  95.0290 265.0844 15.08837899211677
STARLINK-3332           
1 50825U 22001Y   25309.54675848  .00000005  00000+0  18409-4 0  9991
2 50825  53.2192   6.4175 0001429  87.1560 272.9596 15.08837027211667
STARLINK-3329           
1 50827U 22001AA  25309.55779748 -.00000784  00000+0 -31151-4 0  9993
2 50827  53.2198   6.3658 0001156  97.2230 262.8894 15.08839808211661
STARLINK-3290           
1 50828U 22001AB  25309.54402185 -.00001152  00000+0 -54315-4 0  9998
2 50828  53.2188   6.3249 0001423  94.7826 265.3329 15.08836772211519
STARLINK-3294           
1 50829U 22001AC  25309.43267201  .00001560  00000+0  11606-3 0  9991
2 50829  53.2180   6.9307 0001097  81.7013 278.4104 15.08840027211642
STARLINK-3278           
1 50830U 22001AD  25309.58263769  .00000467  00000+0  47442-4 0  9997
2 50830  53.2209  16.2560 0001802  93.8028 266.3170 15.08838471211532
STARLINK-3299           
1 50831U 22001AE  25309.52836586 -.00000601  00000+0 -19706-4 0  9999
2 50831  53.2179   6.5715 0001212  94.1061 266.0070 15.08832200211663
STARLINK-3328           
1 50832U 22001AF  25309.58360128  .00001397  00000+0  10588-3 0  9999
2 50832  53.2217  16.3026 0001821  76.3852 283.7343 15.08829796211538
STARLINK-3331           
1 50834U 22001AH  25309.56791768  .00000169  00000+0  28705-4 0  9994
2 50834  53.2193  16.3305 0001493 103.3897 256.7262 15.08837279211522
STARLINK-3310           
1 50835U 22001AJ  25309.57160968  .00000115  00000+0  25303-4 0  9990
2 50835  53.2186  16.4219 0001629  88.1473 271.9706 15.08837527211529
STARLINK-3330           
1 50836U 22001AK  25309.48421687  .00005145  00000+0  34127-3 0  9990
2 50836  53.2180  16.4801 0001676  97.3013 262.8170 15.08823515211419
STARLINK-3318           
1 50837U 22001AL  25309.53203763 -.00000638  00000+0 -21987-4 0  9995
2 50837  53.2203   6.4899 0001786 125.9146 234.2013 15.08826717211662
STARLINK-3322           
1 50838U 22001AM  25310.00003472  .00362629  00000+0  12261-2 0  9997
2 50838  53.1790 269.4971 0002999  95.1225  44.9362 15.88492656  5919
STARLINK-3320           
1 50839U 22001AN  25309.48327522  .00000460  00000+0  46971-4 0  9992
2 50839  53.2182  16.7030 0001293  90.0894 270.0246 15.08830868211507
STARLINK-3295           
1 50840U 22001AP  25309.54583966 -.00000715  00000+0 -26856-4 0  9992
2 50840  53.2186  16.4226 0001190  86.6496 273.4632 15.08833136211510
