[{"OBJECT_NAME":"STARLINK-3343","OBJECT_ID":"2022-001V","EPOCH":"2025-11-05T13:02:02.277888","MEAN_MOTION":15.08833233,"ECCENTRICITY":0.00013905,"INCLINATION":53.2192,"RA_OF_ASC_NODE":6.4346,"ARG_OF_PERICENTER":81.5051,"MEAN_ANOMALY":278.6098,"EPHEMERIS_TYPE":0,"CLASSIFICATION_TYPE":"U","NORAD_CAT_ID":50822,"ELEMENT_SET_NO":999,"REV_AT_EPOCH":21166,"BSTAR":4.089023e-6,"MEAN_MOTION_DOT":-2.23e-6,"MEAN_MOTION_DDOT":0},{"OBJECT_NAME":"STARLINK-3334","OBJECT_ID":"2022-001W","EPOCH":"2025-11-05T13:49:43.209120","MEAN_MOTION":15.08837899,"ECCENTRICITY":0.000124,"INCLINATION":53.2182,"RA_OF_ASC_NODE":6.2868,"ARG_OF_PERICENTER":95.029,"MEAN_ANOMALY":265.0844,"EPHEMERIS_TYPE":0,"CLASSIFICATION_TYPE":"U","NORAD_CAT_ID":50823,"ELEMENT_SET_NO":999,"REV_AT_EPOCH":21167,"BSTAR":-1.8679484e-5,"MEAN_MOTION_DOT":-5.85e-6,"MEAN_MOTION_DDOT":0},{"OBJECT_NAME":"STARLINK-3332","OBJECT_ID":"2022-001Y","EPOCH":"2025-11-05T13:07:19.932672","MEAN_MOTION":15.08837027,"ECCENTRICITY":0.00014299,"INCLINATION":53.2192,"RA_OF_ASC_NODE":6.4175,"ARG_OF_PERICENTER":87.156,"MEAN_ANOMALY":272.9596,"EPHEMERIS_TYPE":0,"CLASSIFICATION_TYPE":"U","NORAD_CAT_ID":50825,"ELEMENT_SET_NO":999,"REV_AT_EPOCH":21166,"BSTAR":1.8408559e-5,"MEAN_MOTION_DOT":5.0e-8,"MEAN_MOTION_DDOT":0},{"OBJECT_NAME":"STARLINK-3329","OBJECT_ID":"2022-001AA","EPOCH":"2025-11-05T13:23:13.702272","MEAN_MOTION":15.08839808,"ECCENTRICITY":0.00011564,"INCLINATION":53.2198,"RA_OF_ASC_NODE":6.3658,"ARG_OF_PERICENTER":97.223,"MEAN_ANOMALY":262.8894,"EPHEMERIS_TYPE":0,"CLASSIFICATION_TYPE":"U","NORAD_CAT_ID":50827,"ELEMENT_SET_NO":999,"REV_AT_EPOCH":21166,"BSTAR":-3.1151113e-5,"MEAN_MOTION_DOT":-7.84e-6,"MEAN_MOTION_DDOT":0},{"OBJECT_NAME":"STARLINK-3290","OBJECT_ID":"2022-001AB","EPOCH":"2025-11-05T13:03:23.487840","MEAN_MOTION":15.08836772,"ECCENTRICITY":0.00014235,"INCLINATION":53.2188,"RA_OF_ASC_NODE":6.3249,"ARG_OF_PERICENTER":94.7826,"MEAN_ANOMALY":265.3329,"EPHEMERIS_TYPE":0,"CLASSIFICATION_TYPE":"U","NORAD_CAT_ID":50828,"ELEMENT_SET_NO":999,"REV_AT_EPOCH":21151,"BSTAR":-5.4315308e-5,"MEAN_MOTION_DOT":-1.152e-5,"MEAN_MOTION_DDOT":0},{"OBJECT_NAME":"STARLINK-3294","OBJECT_ID":"2022-001AC","EPOCH":"2025-11-05T10:23:02.861664","MEAN_MOTION":15.08840027,"ECCENTRICITY":0.00010971,"INCLINATION":53.218,"RA_OF_ASC_NODE":6.9307,"ARG_OF_PERICENTER":81.7013,"MEAN_ANOMALY":278.4104,"EPHEMERIS_TYPE":0,"CLASSIFICATION_TYPE":"U","NORAD_CAT_ID":50829,"ELEMENT_SET_NO":999,"REV_AT_EPOCH":21164,"BSTAR":0.00011605699,"MEAN_MOTION_DOT":1.56e-5,"MEAN_MOTION_DDOT":0},{"OBJECT_NAME":"STARLINK-3278","OBJECT_ID":"2022-001AD","EPOCH":"2025-11-05T13:58:59.896416","MEAN_MOTION":15.08838471,"ECCENTRICITY":0.00018023,"INCLINATION":53.2209,"RA_OF_ASC_NODE":16.256,"ARG_OF_PERICENTER":93.8028,"MEAN_ANOMALY":266.317,"EPHEMERIS_TYPE":0,"CLASSIFICATION_TYPE":"U","NORAD_CAT_ID":50830,"ELEMENT_SET_NO":999,"REV_AT_EPOCH":21153,"BSTAR":4.7442432e-5,"MEAN_MOTION_DOT":4.67e-6,"MEAN_MOTION_DDOT":0},{"OBJECT_NAME":"STARLINK-3299","OBJECT_ID":"2022-001AE","EPOCH":"2025-11-05T12:40:50.810304","MEAN_MOTION":15.088322,"ECCENTRICITY":0.00012121,"INCLINATION":53.2179,"RA_OF_ASC_NODE":6.5715,"ARG_OF_PERICENTER":94.1061,"MEAN_ANOMALY":266.007,"EPHEMERIS_TYPE":0,"CLASSIFICATION_TYPE":"U","NORAD_CAT_ID":50831,"ELEMENT_SET_NO":999,"REV_AT_EPOCH":21166,"BSTAR":-1.9706003e-5,"MEAN_MOTION_DOT":-6.01e-6,"MEAN_MOTION_DDOT":0},{"OBJECT_NAME":"STARLINK-3328","OBJECT_ID":"2022-001AF","EPOCH":"2025-11-05T14:00:23.150592","MEAN_MOTION":15.08829796,"ECCENTRICITY":0.00018218,"INCLINATION":53.2217,"RA_OF_ASC_NODE":16.3026,"ARG_OF_PERICENTER":76.3852,"MEAN_ANOMALY":283.7343,"EPHEMERIS_TYPE":0,"CLASSIFICATION_TYPE":"U","NORAD_CAT_ID":50832,"ELEMENT_SET_NO":999,"REV_AT_EPOCH":21153,"BSTAR":0.00010587822,"MEAN_MOTION_DOT":1.397e-5,"MEAN_MOTION_DDOT":0},{"OBJECT_NAME":"STARLINK-3331","OBJECT_ID":"2022-001AH","EPOCH":"2025-11-05T13:37:48.087552","MEAN_MOTION":15.08837279,"ECCENTRICITY":0.00014933,"INCLINATION":53.2193,"RA_OF_ASC_NODE":16.3305,"ARG_OF_PERICENTER":103.3897,"MEAN_ANOMALY":256.7262,"EPHEMERIS_TYPE":0,"CLASSIFICATION_TYPE":"U","NORAD_CAT_ID":50834,"ELEMENT_SET_NO":999,"REV_AT_EPOCH":21152,"BSTAR":2.8704684e-5,"MEAN_MOTION_DOT":1.69e-6,"MEAN_MOTION_DDOT":0},{"OBJECT_NAME":"STARLINK-3310","OBJECT_ID":"2022-001AJ","EPOCH":"2025-11-05T13:43:07.076352","MEAN_MOTION":15.08837527,"ECCENTRICITY":0.00016297,"INCLINATION":53.2186,"RA_OF_ASC_NODE":16.4219,"ARG_OF_PERICENTER":88.1473,"MEAN_ANOMALY":271.9706,"EPHEMERIS_TYPE":0,"CLASSIFICATION_TYPE":"U","NORAD_CAT_ID":50835,"ELEMENT_SET_NO":999,"REV_AT_EPOCH":21152,"BSTAR":2.5303317e-5,"MEAN_MOTION_DOT":1.15e-6,"MEAN_MOTION_DDOT":0},{"OBJECT_NAME":"STARLINK-3330","OBJECT_ID":"2022-001AK","EPOCH":"2025-11-05T11:37:16.337568","MEAN_MOTION":15.08823515,"ECCENTRICITY":0.00016761,"INCLINATION":53.218,"RA_OF_ASC_NODE":16.4801,"ARG_OF_PERICENTER":97.3013,"MEAN_ANOMALY":262.817,"EPHEMERIS_TYPE":0,"CLASSIFICATION_TYPE":"U","NORAD_CAT_ID":50836,"ELEMENT_SET_NO":999,"REV_AT_EPOCH":21141,"BSTAR":0.00034126982,"MEAN_MOTION_DOT":5.145e-5,"MEAN_MOTION_DDOT":0},{"OBJECT_NAME":"STARLINK-3318","OBJECT_ID":"2022-001AL","EPOCH":"2025-11-05T12:46:08.051232","MEAN_MOTION":15.08826717,"ECCENTRICITY":0.00017867,"INCLINATION":53.2203,"RA_OF_ASC_NODE":6.4899,"ARG_OF_PERICENTER":125.9146,"MEAN_ANOMALY":234.2013,"EPHEMERIS_TYPE":0,"CLASSIFICATION_TYPE":"U","NORAD_CAT_ID":50837,"ELEMENT_SET_NO":999,"REV_AT_EPOCH":21166,"BSTAR":-2.1987186e-5,"MEAN_MOTION_DOT":-6.38e-6,"MEAN_MOTION_DDOT":0},{"OBJECT_NAME":"STARLINK-3322","OBJECT_ID":"2022-001AM","EPOCH":"2025-11-06T00:00:02.999808","MEAN_MOTION":15.88492656,"ECCENTRICITY":0.00029998,"INCLINATION":53.179,"RA_OF_ASC_NODE":269.4971,"ARG_OF_PERICENTER":95.1225,"MEAN_ANOMALY":44.9362,"EPHEMERIS_TYPE":0,"CLASSIFICATION_TYPE":"U","NORAD_CAT_ID":50838,"ELEMENT_SET_NO":999,"REV_AT_EPOCH":591,"BSTAR":0.0012261354,"MEAN_MOTION_DOT":0.00362629,"MEAN_MOTION_DDOT":0},{"OBJECT_NAME":"STARLINK-3320","OBJECT_ID":"2022-001AN","EPOCH":"2025-11-05T11:35:54.979008","MEAN_MOTION":15.08830868,"ECCENTRICITY":0.00012939,"INCLINATION":53.2182,"RA_OF_ASC_NODE":16.703,"ARG_OF_PERICENTER":90.0894,"MEAN_ANOMALY":270.0246,"EPHEMERIS_TYPE":0,"CLASSIFICATION_TYPE":"U","NORAD_CAT_ID":50839,"ELEMENT_SET_NO":999,"REV_AT_EPOCH":21150,"BSTAR":4.6970558e-5,"MEAN_MOTION_DOT":4.6e-6,"MEAN_MOTION_DDOT":0},{"OBJECT_NAME":"STARLINK-3295","OBJECT_ID":"2022-001AP","EPOCH":"2025-11-05T13:06:00.546624","MEAN_MOTION":15.08833136,"ECCENTRICITY":0.00011905,"INCLINATION":53.2186,"RA_OF_ASC_NODE":16.4226,"ARG_OF_PERICENTER":86.6496,"MEAN_ANOMALY":273.4632,"EPHEMERIS_TYPE":0,"CLASSIFICATION_TYPE":"U","NORAD_CAT_ID":50840,"ELEMENT_SET_NO":999,"REV_AT_EPOCH":21151,"BSTAR":-2.6856022e-5,"MEAN_MOTION_DOT":-7.15e-6,"MEAN_MOTION_DDOT":0}]
